{
  "type": "FeatureCollection",
  "features": [
    {
      "type": "Feature",
      "properties": {
        "norad_id": 37836,
        "name": "EUTELSAT 16A",
        "group": "eutelsat",
        "lat": 0.07142494832079468,
        "lon": 40.9753059036898,
        "alt_km": 35805.69029685201,
        "timestamp": "2025-12-03T20:47:57.888229+00:00",
        "meta_object_name": "EUTELSAT 16A",
        "meta_object_id": "2011-057A",
        "meta_epoch": "2025-12-03T06:58:55.780032",
        "meta_mean_motion": 1.00273705,
        "meta_eccentricity": 0.0006049,
        "meta_inclination": 0.0591,
        "meta_ra_of_asc_node": 347.1689,
        "meta_arg_of_pericenter": 271.8127,
        "meta_mean_anomaly": 294.1445,
        "meta_ephemeris_type": 0,
        "meta_classification_type": "U",
        "meta_norad_cat_id": 37836,
        "meta_element_set_no": 999,
        "meta_rev_at_epoch": 536,
        "meta_bstar": 0,
        "meta_mean_motion_dot": 1.23e-06,
        "meta_mean_motion_ddot": 0,
        "tle_line1": "1 37836U 11057A   25337.29092338  .00000123  00000+0  00000+0 0  9991",
        "tle_line2": "2 37836   0.0591 347.1689 0006049 271.8127 294.1445  1.00273705  5367"
      },
      "geometry": {
        "type": "Point",
        "coordinates": [
          40.9753059036898,
          0.07142494832079468
        ]
      }
    },
    {
      "type": "Feature",
      "properties": {
        "norad_id": 38992,
        "name": "EUTELSAT 21B",
        "group": "eutelsat",
        "lat": 0.08379527559926911,
        "lon": 46.55535303338927,
        "alt_km": 35796.52686454682,
        "timestamp": "2025-12-03T20:47:57.888240+00:00",
        "meta_object_name": "EUTELSAT 21B",
        "meta_object_id": "2012-062B",
        "meta_epoch": "2025-12-03T07:00:33.125184",
        "meta_mean_motion": 1.0027372,
        "meta_eccentricity": 0.0003357,
        "meta_inclination": 0.068,
        "meta_ra_of_asc_node": 345.6672,
        "meta_arg_of_pericenter": 279.9152,
        "meta_mean_anomaly": 293.549,
        "meta_ephemeris_type": 0,
        "meta_classification_type": "U",
        "meta_norad_cat_id": 38992,
        "meta_element_set_no": 999,
        "meta_rev_at_epoch": 4786,
        "meta_bstar": 0,
        "meta_mean_motion_dot": 1.49e-06,
        "meta_mean_motion_ddot": 0,
        "tle_line1": "1 38992U 12062B   25337.29205006  .00000149  00000+0  00000+0 0  9998",
        "tle_line2": "2 38992   0.0680 345.6672 0003357 279.9152 293.5490  1.00273720 47862"
      },
      "geometry": {
        "type": "Point",
        "coordinates": [
          46.55535303338927,
          0.08379527559926911
        ]
      }
    },
    {
      "type": "Feature",
      "properties": {
        "norad_id": 39020,
        "name": "EUTELSAT 70B",
        "group": "eutelsat",
        "lat": 0.07977144120009824,
        "lon": 95.38632764249355,
        "alt_km": 35801.41000111154,
        "timestamp": "2025-12-03T20:47:57.888253+00:00",
        "meta_object_name": "EUTELSAT 70B",
        "meta_object_id": "2012-069A",
        "meta_epoch": "2025-12-03T10:40:00.970752",
        "meta_mean_motion": 1.00271624,
        "meta_eccentricity": 0.0004328,
        "meta_inclination": 0.0628,
        "meta_ra_of_asc_node": 1.7603,
        "meta_arg_of_pericenter": 240.0687,
        "meta_mean_anomaly": 61.2056,
        "meta_ephemeris_type": 0,
        "meta_classification_type": "U",
        "meta_norad_cat_id": 39020,
        "meta_element_set_no": 999,
        "meta_rev_at_epoch": 4754,
        "meta_bstar": 0,
        "meta_mean_motion_dot": -2.5e-07,
        "meta_mean_motion_ddot": 0,
        "tle_line1": "1 39020U 12069A   25337.44445568 -.00000025  00000+0  00000+0 0  9998",
        "tle_line2": "2 39020   0.0628   1.7603 0004328 240.0687  61.2056  1.00271624 47546"
      },
      "geometry": {
        "type": "Point",
        "coordinates": [
          95.38632764249355,
          0.07977144120009824
        ]
      }
    },
    {
      "type": "Feature",
      "properties": {
        "norad_id": 39122,
        "name": "EUTELSAT 117 WEST A",
        "group": "eutelsat",
        "lat": -0.03304413085494732,
        "lon": -91.86258574101187,
        "alt_km": 35773.0671970219,
        "timestamp": "2025-12-03T20:47:57.888280+00:00",
        "meta_object_name": "EUTELSAT 117 WEST A",
        "meta_object_id": "2013-012A",
        "meta_epoch": "2025-12-03T08:49:20.417088",
        "meta_mean_motion": 1.00271901,
        "meta_eccentricity": 0.0003159,
        "meta_inclination": 0.0376,
        "meta_ra_of_asc_node": 56.9809,
        "meta_arg_of_pericenter": 196.7734,
        "meta_mean_anomaly": 194.2496,
        "meta_ephemeris_type": 0,
        "meta_classification_type": "U",
        "meta_norad_cat_id": 39122,
        "meta_element_set_no": 999,
        "meta_rev_at_epoch": 4647,
        "meta_bstar": 0,
        "meta_mean_motion_dot": 5e-08,
        "meta_mean_motion_ddot": 0,
        "tle_line1": "1 39122U 13012A   25337.36759742  .00000005  00000+0  00000+0 0  9990",
        "tle_line2": "2 39122   0.0376  56.9809 0003159 196.7734 194.2496  1.00271901 46474"
      },
      "geometry": {
        "type": "Point",
        "coordinates": [
          -91.86258574101187,
          -0.03304413085494732
        ]
      }
    },
    {
      "type": "Feature",
      "properties": {
        "norad_id": 39163,
        "name": "EUTELSAT 7B",
        "group": "eutelsat",
        "lat": 0.057493790105472134,
        "lon": 31.961630742902887,
        "alt_km": 35783.983148926534,
        "timestamp": "2025-12-03T20:47:57.888295+00:00",
        "meta_object_name": "EUTELSAT 7B",
        "meta_object_id": "2013-022A",
        "meta_epoch": "2025-12-03T08:39:05.058144",
        "meta_mean_motion": 1.00269611,
        "meta_eccentricity": 0.0004191,
        "meta_inclination": 0.0677,
        "meta_ra_of_asc_node": 0.1048,
        "meta_arg_of_pericenter": 310.7582,
        "meta_mean_anomaly": 258.36,
        "meta_ephemeris_type": 0,
        "meta_classification_type": "U",
        "meta_norad_cat_id": 39163,
        "meta_element_set_no": 999,
        "meta_rev_at_epoch": 4599,
        "meta_bstar": 0,
        "meta_mean_motion_dot": 6.6e-07,
        "meta_mean_motion_ddot": 0,
        "tle_line1": "1 39163U 13022A   25337.36047521  .00000066  00000+0  00000+0 0  9998",
        "tle_line2": "2 39163   0.0677   0.1048 0004191 310.7582 258.3600  1.00269611 45995"
      },
      "geometry": {
        "type": "Point",
        "coordinates": [
          31.961630742902887,
          0.057493790105472134
        ]
      }
    },
    {
      "type": "Feature",
      "properties": {
        "norad_id": 39612,
        "name": "EXPRESS-AT1",
        "group": "eutelsat",
        "lat": 0.0294053537625238,
        "lon": 80.91498098993127,
        "alt_km": 35786.32563881012,
        "timestamp": "2025-12-03T20:47:57.888308+00:00",
        "meta_object_name": "EXPRESS-AT1",
        "meta_object_id": "2014-010A",
        "meta_epoch": "2025-12-03T12:43:38.719200",
        "meta_mean_motion": 1.00269885,
        "meta_eccentricity": 2.81e-05,
        "meta_inclination": 0.0165,
        "meta_ra_of_asc_node": 299.7247,
        "meta_arg_of_pericenter": 218.5792,
        "meta_mean_anomaly": 161.2291,
        "meta_ephemeris_type": 0,
        "meta_classification_type": "U",
        "meta_norad_cat_id": 39612,
        "meta_element_set_no": 999,
        "meta_rev_at_epoch": 4285,
        "meta_bstar": 0,
        "meta_mean_motion_dot": 9.7e-07,
        "meta_mean_motion_ddot": 0,
        "tle_line1": "1 39612U 14010A   25337.53030925  .00000097  00000+0  00000+0 0  9998",
        "tle_line2": "2 39612   0.0165 299.7247 0000281 218.5792 161.2291  1.00269885 42850"
      },
      "geometry": {
        "type": "Point",
        "coordinates": [
          80.91498098993127,
          0.0294053537625238
        ]
      }
    },
    {
      "type": "Feature",
      "properties": {
        "norad_id": 39613,
        "name": "EXPRESS-AT2",
        "group": "eutelsat",
        "lat": -0.015737161839441318,
        "lon": 164.74585928359062,
        "alt_km": 35790.185048149295,
        "timestamp": "2025-12-03T20:47:57.888321+00:00",
        "meta_object_name": "EXPRESS-AT2",
        "meta_object_id": "2014-010B",
        "meta_epoch": "2025-12-03T17:43:52.074624",
        "meta_mean_motion": 1.00270479,
        "meta_eccentricity": 0.000148,
        "meta_inclination": 0.0222,
        "meta_ra_of_asc_node": 329.3759,
        "meta_arg_of_pericenter": 322.2198,
        "meta_mean_anomaly": 187.0383,
        "meta_ephemeris_type": 0,
        "meta_classification_type": "U",
        "meta_norad_cat_id": 39613,
        "meta_element_set_no": 999,
        "meta_rev_at_epoch": 4254,
        "meta_bstar": 0,
        "meta_mean_motion_dot": 0,
        "meta_mean_motion_ddot": 0,
        "tle_line1": "1 39613U 14010B   25337.73879716  .00000000  00000+0  00000+0 0  9994",
        "tle_line2": "2 39613   0.0222 329.3759 0001480 322.2198 187.0383  1.00270479 42543"
      },
      "geometry": {
        "type": "Point",
        "coordinates": [
          164.74585928359062,
          -0.015737161839441318
        ]
      }
    }
  ]
}